[{"OBJECT_NAME":"METEOR-M 2","OBJECT_ID":"2014-037A","EPOCH":"2026-03-09T23:09:30.537792","MEAN_MOTION":14.21428734,"ECCENTRICITY":0.00053128,"INCLINATION":98.5035,"RA_OF_ASC_NODE":48.2672,"ARG_OF_PERICENTER":336.7967,"MEAN_ANOMALY":23.2971,"EPHEMERIS_TYPE":0,"CLASSIFICATION_TYPE":"U","NORAD_CAT_ID":40069,"ELEMENT_SET_NO":999,"REV_AT_EPOCH":60522,"BSTAR":2.6040138e-5,"MEAN_MOTION_DOT":1.5e-7,"MEAN_MOTION_DDOT":0},{"OBJECT_NAME":"SL-3 R\/B","OBJECT_ID":"1980-073B","EPOCH":"2026-03-09T22:16:06.169152","MEAN_MOTION":14.10163366,"ECCENTRICITY":0.0075272,"INCLINATION":81.2736,"RA_OF_ASC_NODE":273.9449,"ARG_OF_PERICENTER":52.1491,"MEAN_ANOMALY":308.6459,"EPHEMERIS_TYPE":0,"CLASSIFICATION_TYPE":"U","NORAD_CAT_ID":11963,"ELEMENT_SET_NO":999,"REV_AT_EPOCH":33942,"BSTAR":-2.3995937e-5,"MEAN_MOTION_DOT":-3.0e-7,"MEAN_MOTION_DDOT":0}]
